IRIDIUM 63              
1 25286U 98021B   25256.15280748  .00000370  00000+0  11923-3 0  9996
2 25286  86.3968  45.1994 0002109  86.1234 274.0204 14.36609229436478
IRIDIUM 69              
1 25319U 98026A   25256.17302555  .00000331  00000+0  96873-4 0  9996
2 25319  86.3936  58.2089 0004502  92.2678 267.9038 14.41042831435739
IRIDIUM 71              
1 25320U 98026B   25256.16856863  .00000367  00000+0  10763-3 0  9995
2 25320  86.3945  52.8882 0003604 122.7541 237.4006 14.41224399436269
IRIDIUM 73              
1 25344U 98032C   25256.28760238  .00000511  00000+0  12194-3 0  9992
2 25344  86.4466   9.3947 0002780  84.2360 275.9162 14.51813469443348
IRIDIUM 82              
1 25467U 98051A   25256.21697051  .00020094  00000+0  51066-3 0  9993
2 25467  86.3617  66.2942 0076458 322.3389  37.2523 15.36457618437457
